QUANTUTONG 1            
1 43158U 18008D   22020.41652649  .00004430  00000+0  25895-3 0  9993
2 43158  97.3765  81.7253 0012079 302.8706  67.7471 15.12320982220729
S-NET D                 
1 43186U 18014G   22020.49989836  .00001418  00000+0  12699-3 0  9991
2 43186  97.6693 289.0459 0012736  76.0173 284.2465 14.97345142216778
S-NET B                 
1 43187U 18014H   22020.49990800  .00001407  00000+0  12601-3 0  9996
2 43187  97.6690 289.0040 0012749  75.9314 284.3324 14.97344375216773
S-NET A                 
1 43188U 18014J   22019.56454381  .00001768  00000+0  15710-3 0  9996
2 43188  97.6694 288.1411 0012761  78.8681 281.3975 14.97341782216636
S-NET C                 
1 43189U 18014K   22019.96604515  .00001535  00000+0  13704-3 0  9990
2 43189  97.6689 288.4706 0012750  77.4555 282.8092 14.97341531215248
FENGMANIU-1 (FMN-1)     
1 43192U 18015A   22020.51286979  .00016422  00000+0  54691-3 0  9999
2 43192  97.5127 162.7555 0012690 192.0587 232.8819 15.31126291220764
SHAONIAN XING           
1 43199U 18015H   22020.53138346  .00010968  00000+0  38329-3 0  9991
2 43199  97.4912 159.0081 0014357 201.0767 223.2930 15.29637938220803
LUOJIA-1 01             
1 43485U 18048B   22020.46874135  .00000677  00000+0  10320-3 0  9997
2 43485  97.9467 104.0752 0010504 323.5565  36.4934 14.77019154196022
SURFSAT                 
1 43614U 18070B   22020.00175081  .00016711  00000+0  34506-3 0  9998
2 43614  93.0198  36.3233 0010152 232.5278 127.5057 15.45757035188071
CP7 (DAVE)              
1 43615U 18070C   22020.00415218  .00015306  00000+0  32101-3 0  9996
2 43615  93.0200  36.2437 0010389 233.4439 126.5863 15.45302853188058
ELFIN-B                 
1 43616U 18070D   22020.00092734  .00025137  00000+0  43860-3 0  9998
2 43616  93.0152  36.8167 0009575 222.5861 137.4658 15.50579395188252
ELFIN-A                 
1 43617U 18070E   22020.06518306  .00025396  00000+0  43011-3 0  9998
2 43617  93.0205  37.9300 0009011 216.9115 143.1527 15.51425326188295
CZ-4B R/B               
1 43656U 18081B   22019.88747262  .00000147  00000+0  62275-4 0  9997
2 43656  99.3770 141.9221 0208157 210.7856 148.0981 14.30505245169111
CUBEBEL-1 (BSUSAT-1)    
1 43666U 18083E   22020.52641641  .00006526  00000+0  30013-3 0  9998
2 43666  97.4370  51.0668 0015511 127.3397  38.3572 15.20579896178981
CHANGSHAGAOXIN (TY 4-01)
1 43669U 18083H   22020.49294247  .00005438  00000+0  26070-3 0  9992
2 43669  97.4292  47.4558 0011655 122.4680  15.0066 15.19259549178821
TEN-KOH                 
1 43677U 18084G   22020.35401525  .00000825  00000+0  89823-4 0  9997
2 43677  97.9431 149.3236 0016857  43.6025 316.6521 14.90672580175613
DIWATA-2B               
1 43678U 18084H   22020.50508004  .00000242  00000+0  29670-4 0  9992
2 43678  97.9480 152.2919 0011152  57.7691 302.4619 14.91883493175795
STARS-AO                
1 43679U 18084J   22020.35945672  .00001290  00000+0  13022-3 0  9999
2 43679  97.9523 153.7319 0010275  64.6139 295.6143 14.92846340175845
AUTCUBE 2               
1 43681U 18084K   22019.91876697  .00001298  00000+0  13254-3 0  9997
2 43681  97.9485 152.1410 0010580  60.5717 299.6556 14.92354892175697
IRVINE01                
1 43693U 18088D   22020.33908664  .00014269  00000+0  50376-3 0  9990
2 43693  85.0305  50.4673 0012660 308.1731  51.8373 15.29024660177536
ES'HAIL 2               
1 43700U 18090A   22020.32207730  .00000155  00000+0  00000+0 0  9991
2 43700   0.0154  68.8606 0002253 264.1539 288.3803  1.00272121 11787
FACSAT-1                
1 43721U 18096C   22020.48657291  .00012135  00000+0  40559-3 0  9996
2 43721  97.3680 101.0049 0014855 217.0608 154.9625 15.31045981175309
CENTAURI-2              
1 43722U 18096D   22020.45422953  .00012155  00000+0  38432-3 0  9998
2 43722  97.3703 102.3170 0014311 214.2868 145.7452 15.32840413175365
3CAT-1                  
1 43728U 18096K   22020.47636105  .00014680  00000+0  45981-3 0  9994
2 43728  97.3721 103.0307 0014478 217.5359 154.0272 15.33091064175405
INNOSAT-2               
1 43738U 18096V   22020.38581014  .00023136  00000+0  62134-3 0  9998
2 43738  97.3796 107.5669 0018123 210.3123 214.1233 15.37766236175688
REAKTOR HELLO WORLD     
1 43743U 18096AA  22019.48052995  .00009669  00000+0  32985-3 0  9990
2 43743  97.3681 100.3196 0015272 226.5320 133.4652 15.30441040175159
ELYSIUM STAR 2 & LFF    
1 43760U 18099C   22020.35021335  .00003471  00000+0  30553-3 0  9998
2 43760  97.6490  92.1413 0014580  46.5862 313.6571 14.97057953170954
2018-099D               
1 43761U 18099D   22019.74826421  .00001591  00000+0  14855-3 0  9997
2 43761  97.6432  90.3425 0015562  52.1392 308.1218 14.95493026170798
AISTECHSAT 2            
1 43768U 18099L   22020.42639805  .00000737  00000+0  72186-4 0  9992
2 43768  97.6381  89.6705 0012487  49.1592 311.0710 14.95173365170567
FOX-1CLIFF (AO-95)      
1 43770U 18099N   22020.17148235  .00001161  00000+0  10922-3 0  9990
2 43770  97.6412  90.3166 0015510  56.0057 304.2635 14.95686788170847
RANGE-A                 
1 43772U 18099Q   22020.14974668  .00002710  00000+0  24550-3 0  9999
2 43772  97.6516  91.6581 0015053  45.0002 315.2436 14.96106396170854
RANGE-B                 
1 43773U 18099R   22020.13140228  .00001568  00000+0  14652-3 0  9998
2 43773  97.6342  89.3640 0014397  45.3126 314.9266 14.95483617170829
2018-099T               
1 43775U 18099T   22020.45887863  .00001113  00000+0  10537-3 0  9992
2 43775  97.6411  90.7807 0015495  47.5622 312.6907 14.95519085170875
MOVE-II                 
1 43780U 18099Y   22019.89868438  .00002028  00000+0  18315-3 0  9999
2 43780  97.6444  90.8773 0014377  53.3919 306.8623 14.96515089170839
SNUSAT-2                
1 43782U 18099AA  22020.43837311  .00000884  00000+0  83991-4 0  9990
2 43782  97.6413  90.9933 0013508  42.3356 317.8905 14.95902125170907
SNUGLITE                
1 43784U 18099AC  22020.42687484  .00001054  00000+0  98713-4 0  9993
2 43784  97.6379  90.6536 0016050  48.8912 311.3692 14.96056423170926
ITASAT 1                
1 43786U 18099AE  22020.45235687  .00001171  00000+0  10940-3 0  9997
2 43786  97.6433  91.4184 0015952  48.4707 311.7880 14.95931005170925
KAZSCISAT-1             
1 43787U 18099AF  22020.42538722  .00001610  00000+0  14596-3 0  9990
2 43787  97.6355  90.5314 0015034  45.1721 315.0720 14.96641156170954
EAGLET-I                
1 43790U 18099AJ  22020.17098815  .00000637  00000+0  61419-4 0  9995
2 43790  97.6428  91.6382 0014465  52.6705 307.5832 14.96236838170618
ESEO                    
1 43792U 18099AL  22020.12901094  .00000901  00000+0  85494-4 0  9997
2 43792  97.6385  90.9960 0014290  51.1644 309.0851 14.95892973170657
CSIM-FD                 
1 43793U 18099AM  22019.87131167  .00003150  00000+0  27700-3 0  9998
2 43793  97.6438  91.5835 0013681  48.7095 311.5302 14.97176609170641
ASTROCAST 0.1           
1 43798U 18099AS  22020.14873574  .00003018  00000+0  26943-3 0  9991
2 43798  97.6441  91.9214 0013094  35.4098 324.7990 14.96619231170921
JY1SAT (JO-97)          
1 43803U 18099AX  22020.17529545  .00001333  00000+0  12285-3 0  9999
2 43803  97.6396  90.8850 0015906  48.5511 311.7073 14.96256234170894
SUOMI-100               
1 43804U 18099AY  22020.45366495  .00001489  00000+0  13685-3 0  9991
2 43804  97.6389  91.1020 0015910  48.2676 311.9903 14.96205898170944
AL-FARABI 2             
1 43805U 18099AZ  22019.74812570  .00003048  00000+0  27241-3 0  9998
2 43805  97.6420  90.7651 0016227  51.4747 308.7912 14.96539682170858
CENTAURI-1              
1 43809U 18099BD  22020.13597815  .00001672  00000+0  15330-3 0  9996
2 43809  97.6407  91.1200 0016160  50.7772 309.4881 14.96122934170590
CHOMPTT                 
1 43855U 18104G   22019.87325686  .00005309  00000+0  20923-3 0  9993
2 43855  85.0388 149.9950 0018381  70.0223 290.2998 15.25167914172067
DAVINCI                 
1 43857U 18104J   22020.38934262  .00016363  00000+0  57789-3 0  9991
2 43857  85.0329 148.7681 0014482  88.2762 272.0142 15.28989543172184
UWE-4                   
1 43880U 18111E   22020.48006521  .00002009  00000+0  17799-3 0  9993
2 43880  97.6780 289.3915 0013658  96.5810 263.6967 14.97283607165559
ZACUBE-2                
1 43907U 18111AH  22020.51761897  .00003486  00000+0  13793-3 0  9991
2 43907  97.2104 272.1005 0018863 243.1684 238.8512 15.25939243170728
MICRODRAGON             
1 43935U 19003D   22020.11681378  .00003642  00000+0  15206-3 0  9999
2 43935  97.1555  56.9768 0016960 346.4469  13.6311 15.24127772167093
AOBA VELOX-IV           
1 43940U 19003J   22019.35520246  .00017633  00000+0  60447-3 0  9997
2 43940  97.1509  60.3092 0019732 324.4583  35.5343 15.30052018167286
M6P                     
1 44109U 19018AF  22020.14250380  .00008723  00000+0  24782-3 0  9991
2 44109  97.4094 103.2463 0051361 300.5303  59.0876 15.35084004156672
FORMOSAT 7-4            
1 44350U 19036M   22020.49218912  .00002704  00000+0  14826-3 0  9993
2 44350  24.0009 320.3968 0006225 116.2604 243.8540 15.08307463141165
PAINANI 1               
1 44365U 19037A   22019.59241884  .00022858  00000+0  47872-3 0  9992
2 44365  45.0029 130.4023 0005003   0.6637 359.4259 15.45081654144158
ACRUX 1                 
1 44369U 19037E   22020.22890697  .00041154  00000+0  58139-3 0  9998
2 44369  45.0029  89.7056 0011513  25.3782 334.7676 15.55855495144648
METEOR-M2 2             
1 44387U 19038A   22020.42537854 -.00000016  00000+0  12442-4 0  9995
2 44387  98.7019 342.5606 0001778  28.0144 332.1128 14.23697302132340
VDNH-80                 
1 44392U 19038G   22020.50642553  .00005966  00000+0  32351-3 0  9991
2 44392  97.6150 349.7808 0018852 285.9922 193.2077 15.14809723140433
D-STAR ONE (LIGHTSAT)   
1 44393U 19038H   22019.90002258  .00004833  00000+0  26336-3 0  9994
2 44393  97.6184 349.0404 0019072 288.1503  71.7652 15.14735029140538
